[{"OBJECT_NAME":"STARLINK-30188","OBJECT_ID":"2023-105C","EPOCH":"2026-03-09T22:00:01.999584","MEAN_MOTION":15.12347559,"ECCENTRICITY":0.00023729,"INCLINATION":42.9998,"RA_OF_ASC_NODE":259.9305,"ARG_OF_PERICENTER":277.6311,"MEAN_ANOMALY":331.0502,"EPHEMERIS_TYPE":0,"CLASSIFICATION_TYPE":"U","NORAD_CAT_ID":57432,"ELEMENT_SET_NO":999,"REV_AT_EPOCH":572,"BSTAR":0.004944245,"MEAN_MOTION_DOT":0.00088094,"MEAN_MOTION_DDOT":0},{"OBJECT_NAME":"PIESAT-2 10","OBJECT_ID":"2024-241B","EPOCH":"2026-03-09T22:48:45.474912","MEAN_MOTION":15.13442757,"ECCENTRICITY":0.00016097,"INCLINATION":97.5294,"RA_OF_ASC_NODE":18.0943,"ARG_OF_PERICENTER":90.8113,"MEAN_ANOMALY":269.3302,"EPHEMERIS_TYPE":0,"CLASSIFICATION_TYPE":"U","NORAD_CAT_ID":62334,"ELEMENT_SET_NO":999,"REV_AT_EPOCH":6779,"BSTAR":0.00025471239,"MEAN_MOTION_DOT":4.487e-5,"MEAN_MOTION_DDOT":0}]
